{"type": "FeatureCollection", "features": [ {"type": "Feature", "properties": {"norad_id": 57401, "name": "TIANMU-1 09", "group": "weather", "lat": 71.26058351647616, "lon": 6.092366468388697, "alt_km": 471.2824649102322, "timestamp": "2025-12-04T21:36:15.516913+00:00", "meta": {"OBJECT_NAME": "TIANMU-1 09", "OBJECT_ID": "2023-101C", "EPOCH": "2025-12-04T15:00:01.115424", "MEAN_MOTION": 15.27899159, "ECCENTRICITY": 0.00067659, "INCLINATION": 97.2836, "RA_OF_ASC_NODE": 27.9724, "ARG_OF_PERICENTER": 105.8673, "MEAN_ANOMALY": 254.3313, "EPHEMERIS_TYPE": 0, "CLASSIFICATION_TYPE": "U", "NORAD_CAT_ID": 57401, "ELEMENT_SET_NO": 999, "REV_AT_EPOCH": 13191, "BSTAR": 0.0005960204, "MEAN_MOTION_DOT": 0.00016187, "MEAN_MOTION_DDOT": 0}, "tle": {"line1": "1 57401U 23101C   25338.62501291  .00016187  00000+0  59602-3 0  9998", "line2": "2 57401  97.2836  27.9724 0006765 105.8673 254.3313 15.27899159131911"}}, "geometry": {"type": "Point", "coordinates": [6.092366468388697, 71.26058351647616]}}, {"type": "Feature", "properties": {"norad_id": 57402, "name": "TIANMU-1 10", "group": "weather", "lat": -64.08900557083552, "lon": -166.1990675652139, "alt_km": 493.76751168398823, "timestamp": "2025-12-04T21:36:15.516930+00:00", "meta": {"OBJECT_NAME": "TIANMU-1 10", "OBJECT_ID": "2023-101D", "EPOCH": "2025-12-04T15:49:13.374912", "MEAN_MOTION": 15.27891204, "ECCENTRICITY": 0.00085396, "INCLINATION": 97.2916, "RA_OF_ASC_NODE": 28.847, "ARG_OF_PERICENTER": 106.7219, "MEAN_ANOMALY": 253.4958, "EPHEMERIS_TYPE": 0, "CLASSIFICATION_TYPE": "U", "NORAD_CAT_ID": 57402, "ELEMENT_SET_NO": 999, "REV_AT_EPOCH": 13191, "BSTAR": 0.0005776642, "MEAN_MOTION_DOT": 0.00015687, "MEAN_MOTION_DDOT": 0}, "tle": {"line1": "1 57402U 23101D   25338.65918258  .00015687  00000+0  57766-3 0  9990", "line2": "2 57402  97.2916  28.8470 0008539 106.7219 253.4958 15.27891204131914"}}, "geometry": {"type": "Point", "coordinates": [-166.1990675652139, -64.08900557083552]}}, {"type": "Feature", "properties": {"norad_id": 57490, "name": "FENGYUN 3F", "group": "weather", "lat": -49.24225172234551, "lon": 57.56430254518855, "alt_km": 832.9216646999739, "timestamp": "2025-12-04T21:36:15.516950+00:00", "meta": {"OBJECT_NAME": "FENGYUN 3F", "OBJECT_ID": "2023-111A", "EPOCH": "2025-12-04T15:04:28.578720", "MEAN_MOTION": 14.19890337, "ECCENTRICITY": 6.844e-05, "INCLINATION": 98.7094, "RA_OF_ASC_NODE": 47.0521, "ARG_OF_PERICENTER": 88.8318, "MEAN_ANOMALY": 271.2937, "EPHEMERIS_TYPE": 0, "CLASSIFICATION_TYPE": "U", "NORAD_CAT_ID": 57490, "ELEMENT_SET_NO": 999, "REV_AT_EPOCH": 12125, "BSTAR": 0.00011543667, "MEAN_MOTION_DOT": 2.01e-06, "MEAN_MOTION_DDOT": 0}, "tle": {"line1": "1 57490U 23111A   25338.62810855  .00000201  00000+0  11544-3 0  9999", "line2": "2 57490  98.7094  47.0521 0000684  88.8318 271.2937 14.19890337121254"}}, "geometry": {"type": "Point", "coordinates": [57.56430254518855, -49.24225172234551]}}, {"type": "Feature", "properties": {"norad_id": 58584, "name": "ARKTIKA-M 2", "group": "weather", "lat": 37.66246490203285, "lon": -161.30868487625972, "alt_km": 20958.615149663194, "timestamp": "2025-12-04T21:36:15.516969+00:00", "meta": {"OBJECT_NAME": "ARKTIKA-M 2", "OBJECT_ID": "2023-198A", "EPOCH": "2025-12-03T08:34:19.284960", "MEAN_MOTION": 2.00605176, "ECCENTRICITY": 0.68642509, "INCLINATION": 63.2223, "RA_OF_ASC_NODE": 175.9121, "ARG_OF_PERICENTER": 268.1397, "MEAN_ANOMALY": 18.842, "EPHEMERIS_TYPE": 0, "CLASSIFICATION_TYPE": "U", "NORAD_CAT_ID": 58584, "ELEMENT_SET_NO": 999, "REV_AT_EPOCH": 1439, "BSTAR": 0, "MEAN_MOTION_DOT": 2.24e-06, "MEAN_MOTION_DDOT": 0}, "tle": {"line1": "1 58584U 23198A   25337.35716765  .00000224  00000+0  00000+0 0  9999", "line2": "2 58584  63.2223 175.9121 6864250 268.1397  18.8420  2.00605176 14390"}}, "geometry": {"type": "Point", "coordinates": [-161.30868487625972, 37.66246490203285]}}, {"type": "Feature", "properties": {"norad_id": 58645, "name": "TIANMU-1 11", "group": "weather", "lat": 18.207135180662934, "lon": -178.9006346080225, "alt_km": 498.83914264654686, "timestamp": "2025-12-04T21:36:15.516989+00:00", "meta": {"OBJECT_NAME": "TIANMU-1 11", "OBJECT_ID": "2023-205A", "EPOCH": "2025-12-04T14:35:47.439744", "MEAN_MOTION": 15.24448305, "ECCENTRICITY": 0.0008692, "INCLINATION": 97.3607, "RA_OF_ASC_NODE": 358.3756, "ARG_OF_PERICENTER": 342.3186, "MEAN_ANOMALY": 17.7748, "EPHEMERIS_TYPE": 0, "CLASSIFICATION_TYPE": "U", "NORAD_CAT_ID": 58645, "ELEMENT_SET_NO": 999, "REV_AT_EPOCH": 10785, "BSTAR": 0.00058146283, "MEAN_MOTION_DOT": 0.00014231, "MEAN_MOTION_DDOT": 0}, "tle": {"line1": "1 58645U 23205A   25338.60818796  .00014231  00000+0  58146-3 0  9993", "line2": "2 58645  97.3607 358.3756 0008692 342.3186  17.7748 15.24448305107852"}}, "geometry": {"type": "Point", "coordinates": [-178.9006346080225, 18.207135180662934]}}, {"type": "Feature", "properties": {"norad_id": 58646, "name": "TIANMU-1 12", "group": "weather", "lat": 16.513727792304984, "lon": -3.7254970727442225, "alt_km": 490.5008627939924, "timestamp": "2025-12-04T21:36:15.517007+00:00", "meta": {"OBJECT_NAME": "TIANMU-1 12", "OBJECT_ID": "2023-205B", "EPOCH": "2025-12-04T15:13:47.237664", "MEAN_MOTION": 15.24361607, "ECCENTRICITY": 0.00065196, "INCLINATION": 97.3594, "RA_OF_ASC_NODE": 358.2097, "ARG_OF_PERICENTER": 327.9175, "MEAN_ANOMALY": 32.1665, "EPHEMERIS_TYPE": 0, "CLASSIFICATION_TYPE": "U", "NORAD_CAT_ID": 58646, "ELEMENT_SET_NO": 999, "REV_AT_EPOCH": 10784, "BSTAR": 0.0005391095, "MEAN_MOTION_DOT": 0.00013147, "MEAN_MOTION_DDOT": 0}, "tle": {"line1": "1 58646U 23205B   25338.63457451  .00013147  00000+0  53911-3 0  9994", "line2": "2 58646  97.3594 358.2097 0006519 327.9175  32.1665 15.24361607107845"}}, "geometry": {"type": "Point", "coordinates": [-3.7254970727442225, 16.513727792304984]}}, {"type": "Feature", "properties": {"norad_id": 58647, "name": "TIANMU-1 13", "group": "weather", "lat": -11.846419032079007, "lon": 177.11399028496365, "alt_km": 498.71867269614904, "timestamp": "2025-12-04T21:36:15.517028+00:00", "meta": {"OBJECT_NAME": "TIANMU-1 13", "OBJECT_ID": "2023-205C", "EPOCH": "2025-12-04T14:27:47.237184", "MEAN_MOTION": 15.24368255, "ECCENTRICITY": 0.00063065, "INCLINATION": 97.3623, "RA_OF_ASC_NODE": 358.3758, "ARG_OF_PERICENTER": 304.0368, "MEAN_ANOMALY": 56.027, "EPHEMERIS_TYPE": 0, "CLASSIFICATION_TYPE": "U", "NORAD_CAT_ID": 58647, "ELEMENT_SET_NO": 999, "REV_AT_EPOCH": 10783, "BSTAR": 0.00057670577, "MEAN_MOTION_DOT": 0.00014073, "MEAN_MOTION_DDOT": 0}, "tle": {"line1": "1 58647U 23205C   25338.60263006  .00014073  00000+0  57671-3 0  9999", "line2": "2 58647  97.3623 358.3758 0006306 304.0368  56.0270 15.24368255107830"}}, "geometry": {"type": "Point", "coordinates": [177.11399028496365, -11.846419032079007]}}, {"type": "Feature", "properties": {"norad_id": 58648, "name": "TIANMU-1 14", "group": "weather", "lat": -74.80689380586296, "lon": 26.427746954719947, "alt_km": 495.5428215400416, "timestamp": "2025-12-04T21:36:15.517039+00:00", "meta": {"OBJECT_NAME": "TIANMU-1 14", "OBJECT_ID": "2023-205D", "EPOCH": "2025-12-04T15:38:16.929312", "MEAN_MOTION": 15.2435395, "ECCENTRICITY": 0.00071851, "INCLINATION": 97.3555, "RA_OF_ASC_NODE": 357.7801, "ARG_OF_PERICENTER": 308.4743, "MEAN_ANOMALY": 51.5849, "EPHEMERIS_TYPE": 0, "CLASSIFICATION_TYPE": "U", "NORAD_CAT_ID": 58648, "ELEMENT_SET_NO": 999, "REV_AT_EPOCH": 10784, "BSTAR": 0.00054494002, "MEAN_MOTION_DOT": 0.00013289, "MEAN_MOTION_DDOT": 0}, "tle": {"line1": "1 58648U 23205D   25338.65158483  .00013289  00000+0  54494-3 0  9995", "line2": "2 58648  97.3555 357.7801 0007185 308.4743  51.5849 15.24353950107847"}}, "geometry": {"type": "Point", "coordinates": [26.427746954719947, -74.80689380586296]}}, {"type": "Feature", "properties": {"norad_id": 58660, "name": "TIANMU-1 19", "group": "weather", "lat": 81.08476728513682, "lon": 33.545807919325725, "alt_km": 478.052853348041, "timestamp": "2025-12-04T21:36:15.517050+00:00", "meta": {"OBJECT_NAME": "TIANMU-1 19", "OBJECT_ID": "2023-208A", "EPOCH": "2025-12-04T14:56:41.485632", "MEAN_MOTION": 15.27620912, "ECCENTRICITY": 0.00040869, "INCLINATION": 97.4396, "RA_OF_ASC_NODE": 89.6776, "ARG_OF_PERICENTER": 289.3714, "MEAN_ANOMALY": 70.7083, "EPHEMERIS_TYPE": 0, "CLASSIFICATION_TYPE": "U", "NORAD_CAT_ID": 58660, "ELEMENT_SET_NO": 999, "REV_AT_EPOCH": 10758, "BSTAR": 0.00070923485, "MEAN_MOTION_DOT": 0.0001911, "MEAN_MOTION_DDOT": 0}, "tle": {"line1": "1 58660U 23208A   25338.62270238  .00019110  00000+0  70923-3 0  9996", "line2": "2 58660  97.4396  89.6776 0004086 289.3714  70.7083 15.27620912107581"}}, "geometry": {"type": "Point", "coordinates": [33.545807919325725, 81.08476728513682]}}, {"type": "Feature", "properties": {"norad_id": 58661, "name": "TIANMU-1 20", "group": "weather", "lat": 53.53586481303306, "lon": -79.4295126500164, "alt_km": 478.725360105208, "timestamp": "2025-12-04T21:36:15.517060+00:00", "meta": {"OBJECT_NAME": "TIANMU-1 20", "OBJECT_ID": "2023-208B", "EPOCH": "2025-12-04T14:46:20.958240", "MEAN_MOTION": 15.28812578, "ECCENTRICITY": 0.00064391, "INCLINATION": 97.4333, "RA_OF_ASC_NODE": 90.1102, "ARG_OF_PERICENTER": 299.7968, "MEAN_ANOMALY": 60.2631, "EPHEMERIS_TYPE": 0, "CLASSIFICATION_TYPE": "U", "NORAD_CAT_ID": 58661, "ELEMENT_SET_NO": 999, "REV_AT_EPOCH": 10765, "BSTAR": 0.0006787705, "MEAN_MOTION_DOT": 0.00018969, "MEAN_MOTION_DDOT": 0}, "tle": {"line1": "1 58661U 23208B   25338.61552035  .00018969  00000+0  67877-3 0  9999", "line2": "2 58661  97.4333  90.1102 0006439 299.7968  60.2631 15.28812578107656"}}, "geometry": {"type": "Point", "coordinates": [-79.4295126500164, 53.53586481303306]}}]}